[
    {
        "Altitude(m)": 610405.2747582716,
        "Argument of Periapsis(deg)": 0.0,
        "Eccentricity": 0.0,
        "Inclination(deg)": 60.0,
        "Latitude(deg)": 52.111138399915355,
        "Longitude(deg)": -97.52254025035849,
        "Mean Anomaly(deg)": 114.5455,
        "RAAN(deg)": 229.99999999999997,
        "Satellite Name": "Test1 1019",
        "Satellite Number": 1019,
        "Semi-Major Axis(m)": 6980739.136638005,
        "Time(s)": 0
    },
    {
        "Altitude(m)": 610321.8474305179,
        "Argument of Periapsis(deg)": 0.00010418945913296404,
        "Eccentricity": 0.0,
        "Inclination(deg)": 60.0,
        "Latitude(deg)": 51.74585293924717,
        "Longitude(deg)": -96.75364922900204,
        "Mean Anomaly(deg)": 115.16560614546188,
        "RAAN(deg)": 229.99957995086024,
        "Satellite Name": "Test1 1019",
        "Satellite Number": 1019,
        "Semi-Major Axis(m)": 6980739.136638005,
        "Time(s)": 10
    }
]